NORAD_CAT_ID,OBJECT_NAME,OBJECT_TYPE,EPOCH,MEAN_MOTION,ECCENTRICITY,INCLINATION,RA_OF_ASC_NODE,ARG_OF_PERICENTER,MEAN_ANOMALY,BSTAR,MEAN_MOTION_DOT,MEAN_MOTION_DDOT,TLE_LINE0,TLE_LINE1,TLE_LINE2,SEMIMAJOR_AXIS,PERIOD,APOGEE,PERIGEE,DECAYED
53827.0,STARLINK-4764,PAYLOAD,2022-11-26 14:00:01,15.08868695,0.0001406,53.2165,287.1662,71.3131,20.2549,-0.0033123,-0.00052659,0.0,0 STARLINK-4764,1 53827U 22114K   22330.58334491 -.00052659  00000-0 -33123-2 0  9995,2 53827  53.2165 287.1662 0001406  71.3131  20.2549 15.08868695  1300,6917.793000000002,95.436,540.63,538.685,0.0
53827.0,STARLINK-4764,PAYLOAD,2022-11-26 22:00:00,15.08852639,0.0001344,53.2167,285.6694,75.782,27.362,-0.00098085,-0.00015869,0.0,0 STARLINK-4764,1 53827U 22114K   22330.91667824 -.00015869  00000-0 -98085-3 0  9992,2 53827  53.2167 285.6694 0001344  75.7820  27.3620 15.08852639 11315,6917.842,95.437,540.637,538.7769999999998,0.0
53827.0,STARLINK-4764,PAYLOAD,2022-11-27 14:00:01,15.08840662,0.0001249,53.2165,282.6772,69.9001,56.4289,-0.0006932,-0.00011303,0.0,0 STARLINK-4764,1 53827U 22114K   22331.58334491 -.00011303  00000-0 -69320-3 0  9996,2 53827  53.2165 282.6772 0001249  69.9001  56.4289 15.08840662  1302,6917.878000000002,95.438,540.607,538.879,0.0
53827.0,STARLINK-4764,PAYLOAD,2022-11-27 22:00:00,15.08859163,0.0001236,53.2166,281.1806,75.227,62.6853,-0.0017598,-0.000282,0.0,0 STARLINK-4764,1 53827U 22114K   22331.91667824 -.00028200  00000-0 -17598-2 0  9995,2 53827  53.2166 281.1806 0001236  75.2270  62.6853 15.08859163  1301,6917.821999999999,95.436,540.5419999999998,538.832,0.0
53827.0,STARLINK-4764,PAYLOAD,2022-11-28 00:00:00,15.08869802,0.0001219,53.2165,280.8072,72.48,158.3316,-0.0040345,-0.00063978,0.0,0 STARLINK-4764,1 53827U 22114K   22332.00001157 -.00063978  00000-0 -40345-2 0  9994,2 53827  53.2165 280.8072 0001219  72.4800 158.3316 15.08869802 11477,6917.7890000000025,95.436,540.498,538.811,0.0
53827.0,STARLINK-4764,PAYLOAD,2022-11-28 16:00:00,15.08820565,0.0001107,53.216,277.8138,72.2959,181.7149,0.0026926,0.00042802,0.0,0 STARLINK-4764,1 53827U 22114K   22332.66667824  .00042802  00000-0  26926-2 0  9995,2 53827  53.2160 277.8138 0001107  72.2959 181.7149 15.08820565 11578,6917.94,95.439,540.571,539.039,0.0
53827.0,STARLINK-4764,PAYLOAD,2022-11-28 22:00:01,15.08858958,0.0001190999999999,53.2161,276.6918,75.5571,97.198,-0.00069335,-0.00011311,0.0,0 STARLINK-4764,1 53827U 22114K   22332.91668981 -.00011311  00000-0 -69335-3 0  9993,2 53827  53.2161 276.6918 0001191  75.5571  97.1980 15.08858958  1301,6917.821999999999,95.436,540.511,538.864,0.0
53827.0,STARLINK-4764,PAYLOAD,2022-11-29 06:00:00,15.08824123,0.0001344,53.2157,275.197,65.1621,119.1525,0.0012684,0.00019947,0.0,0 STARLINK-4764,1 53827U 22114K   22333.25001157  .00019947  00000-0  12684-2 0  9992,2 53827  53.2157 275.1970 0001344  65.1621 119.1525 15.08824123 11666,6917.929,95.439,540.724,538.864,0.0
53827.0,STARLINK-4764,PAYLOAD,2022-11-29 14:00:01,15.0883851,0.0001338,53.2153,273.6991,74.1606,121.8044,-0.0025039,-0.00039915,0.0,0 STARLINK-4764,1 53827U 22114K   22333.58335648 -.00039915  00000-0 -25039-2 0  9990,2 53827  53.2153 273.6991 0001338  74.1606 121.8044 15.08838510  1305,6917.885,95.438,540.6759999999998,538.8240000000002,0.0
53827.0,STARLINK-4764,PAYLOAD,2022-11-29 22:00:00,15.08830636,0.0001444,53.2153,272.203,78.4154,129.0589,-0.00025368,-4.322e-05,0.0,0 STARLINK-4764,1 53827U 22114K   22333.91667824 -.00004322  00000-0 -25368-3 0  9991,2 53827  53.2153 272.2030 0001444  78.4154 129.0589 15.08830636 11763,6917.909000000002,95.438,540.773,538.775,0.0
53827.0,STARLINK-4764,PAYLOAD,2022-11-30 14:00:01,15.08835053,0.000144,53.2153,269.2106,76.6446,154.0594,0.00060786,9.398e-05,0.0,0 STARLINK-4764,1 53827U 22114K   22334.58335648  .00009398  00000-0  60786-3 0  9990,2 53827  53.2153 269.2106 0001440  76.6446 154.0594 15.08835053  1304,6917.896,95.438,540.757,538.764,0.0
53827.0,STARLINK-4764,PAYLOAD,2022-11-30 22:00:00,15.0888199,0.0001509,53.2161,267.7166,80.7311,161.4944,-0.0068636,-0.00108012,0.0,0 STARLINK-4764,1 53827U 22114K   22334.91667824 -.00108012  00000-0 -68636-2 0  9997,2 53827  53.2161 267.7166 0001509  80.7311 161.4944 15.08881990  1307,6917.752,95.435,540.661,538.573,0.0
53827.0,STARLINK-4764,PAYLOAD,2022-12-01 06:00:00,15.08776485,0.0001486999999999,53.2169,266.2245,70.9699,182.86,0.0057409,0.00092114,0.0,0 STARLINK-4764,1 53827U 22114K   22335.25001157  .00092114  00000-0  57409-2 0  9995,2 53827  53.2169 266.2245 0001487  70.9699 182.8600 15.08776485 11963,6918.075,95.442,540.9680000000002,538.911,0.0
53827.0,STARLINK-4764,PAYLOAD,2022-12-01 14:00:01,15.08836868,0.0001597,53.2146,264.7204,76.3426,189.0848,0.0014094,0.00022212,0.0,0 STARLINK-4764,1 53827U 22114K   22335.58334491  .00022212  00000-0  14094-2 0  9996,2 53827  53.2146 264.7204 0001597  76.3426 189.0848 15.08836868  1308,6917.89,95.438,540.86,538.65,0.0
53827.0,STARLINK-4764,PAYLOAD,2022-12-01 22:00:00,15.08841912,0.0001579,53.2147,263.2242,76.1001,200.9081,-0.0004234,-7.021e-05,0.0,0 STARLINK-4764,1 53827U 22114K   22335.91667824 -.00007021  00000-0 -42340-3 0  9991,2 53827  53.2147 263.2242 0001579  76.1001 200.9081 15.08841912 12065,6917.875,95.437,540.832,538.6469999999998,0.0
53827.0,STARLINK-4764,PAYLOAD,2022-12-02 14:00:01,15.08809766,0.0001460999999999,53.215,260.2308,72.6208,227.5833,0.0019049,0.00030133,0.0,0 STARLINK-4764,1 53827U 22114K   22336.58334491  .00030133  00000-0  19049-2 0  9993,2 53827  53.2150 260.2308 0001461  72.6208 227.5833 15.08809766  1305,6917.973000000001,95.439,540.849,538.827,0.0
53827.0,STARLINK-4764,PAYLOAD,2022-12-02 22:00:00,15.08855768,0.00015,53.2151,258.7348,72.8094,238.9582,-0.0023714,-0.00037847,0.0,0 STARLINK-4764,1 53827U 22114K   22336.91667824 -.00037847  00000-0 -23714-2 0  9994,2 53827  53.2151 258.7348 0001500  72.8094 238.9582 15.08855768  1301,6917.831999999999,95.437,540.735,538.66,0.0
53827.0,STARLINK-4764,PAYLOAD,2022-12-03 00:00:00,15.08859419,0.0001530999999999,53.215,258.3612,69.263,335.404,-0.0037668,-0.00059771,0.0,0 STARLINK-4764,1 53827U 22114K   22337.00001157 -.00059771  00000-0 -37668-2 0  9999,2 53827  53.2150 258.3612 0001531  69.2630 335.4040 15.08859419 12233,6917.821,95.436,540.745,538.627,0.0
53827.0,STARLINK-4764,PAYLOAD,2022-12-03 14:00:01,15.08809648,0.0001411,53.2156,255.7414,71.058,263.8909,0.0024619,0.00039078,0.0,0 STARLINK-4764,1 53827U 22114K   22337.58334491  .00039078  00000-0  24619-2 0  9990,2 53827  53.2156 255.7414 0001411  71.0580 263.8909 15.08809648 12318,6917.973000000001,95.439,540.814,538.862,0.0
53827.0,STARLINK-4764,PAYLOAD,2022-12-03 22:00:00,15.08850774,0.0001495,53.2158,254.2455,70.2281,276.2885,-0.001031,-0.00016664,0.0,0 STARLINK-4764,1 53827U 22114K   22337.91667824 -.00016664  00000-0 -10310-2 0  9997,2 53827  53.2158 254.2455 0001495  70.2281 276.2885 15.08850774  1304,6917.847,95.437,540.747,538.678,0.0
53827.0,STARLINK-4764,PAYLOAD,2022-12-04 06:00:00,15.08842287,0.0001511,53.2157,252.7502,62.2949,295.8257,0.00067777,0.00010516,0.0,0 STARLINK-4764,1 53827U 22114K   22338.25001157  .00010516  00000-0  67777-3 0  9994,2 53827  53.2157 252.7502 0001511  62.2949 295.8257 15.08842287 12425,6917.873000000001,95.437,540.784,538.693,0.0
53827.0,STARLINK-4764,PAYLOAD,2022-12-04 14:00:01,15.08811788,0.0001349,53.216,251.252,70.7423,298.9912,0.002932,0.00046648,0.0,0 STARLINK-4764,1 53827U 22114K   22338.58334491  .00046648  00000-0  29320-2 0  9996,2 53827  53.2160 251.2520 0001349  70.7423 298.9912 15.08811788  1302,6917.967,95.439,540.765,538.898,0.0
53827.0,STARLINK-4764,PAYLOAD,2022-12-04 22:00:00,15.08861135,0.0001421,53.2162,249.7564,68.9598,312.3508,-0.00088754,-0.00014393,0.0,0 STARLINK-4764,1 53827U 22114K   22338.91667824 -.00014393  00000-0 -88754-3 0  9993,2 53827  53.2162 249.7564 0001421  68.9598 312.3508 15.08861135  1300,6917.816,95.436,540.664,538.698,0.0
53827.0,STARLINK-4764,PAYLOAD,2022-12-05 14:00:01,15.08836993,0.0001276,53.2161,246.7627,70.5224,334.0935,0.0010949999999999,0.0001718,0.0,0 STARLINK-4764,1 53827U 22114K   22339.58335648  .00017180  00000-0  10950-2 0  9990,2 53827  53.2161 246.7627 0001276  70.5224 334.0935 15.08836993  1308,6917.89,95.438,540.637,538.872,0.0
53827.0,STARLINK-4764,PAYLOAD,2022-12-05 16:00:00,15.08844378,0.0001312,53.2161,246.3885,72.6812,64.7698,0.00022373,3.275e-05,0.0,0 STARLINK-4764,1 53827U 22114K   22339.66667824  .00003275  00000-0  22373-3 0  9996,2 53827  53.2161 246.3885 0001312  72.6812  64.7698 15.08844378 12634,6917.8669999999975,95.437,540.64,538.8240000000002,0.0
53827.0,STARLINK-4764,PAYLOAD,2022-12-06 02:31:20,15.08838404,0.0001426999999999,53.2166,244.4214,66.5846,293.5296,-1.4803e-05,-5.24e-06,0.0,0 STARLINK-4764,1 53827U 22114K   22340.10509292 -.00000524  00000-0 -14803-4 0  9997,2 53827  53.2166 244.4214 0001427  66.5846 293.5296 15.08838404 12707,6917.885,95.438,540.737,538.763,0.0
53827.0,STARLINK-4764,PAYLOAD,2022-12-06 10:28:15,15.08836827,0.0001437,53.2166,242.9347,66.4542,293.6601,-3.4727e-05,-8.41e-06,0.0,0 STARLINK-4764,1 53827U 22114K   22340.43629459 -.00000841  00000-0 -34727-4 0  9990,2 53827  53.2166 242.9347 0001437  66.4542 293.6601 15.08836827 13293,6917.89,95.438,540.749,538.761,0.0
53827.0,STARLINK-4764,PAYLOAD,2022-12-06 18:25:12,15.08824454,0.0001398,53.2165,241.4483,68.885,291.2292,-0.00013315,-2.405e-05,0.0,0 STARLINK-4764,1 53827U 22114K   22340.76750713 -.00002405  00000-0 -13315-3 0  9991,2 53827  53.2165 241.4483 0001398  68.8850 291.2292 15.08824454 13340,6917.928000000001,95.439,540.76,538.826,0.0
53827.0,STARLINK-4764,PAYLOAD,2022-12-07 03:57:31,15.08825308,0.0001481,53.2167,239.6645,69.5501,290.5651,-0.00011638,-2.139e-05,0.0,0 STARLINK-4764,1 53827U 22114K   22341.16494963 -.00002139  00000-0 -11638-3 0  9998,2 53827  53.2167 239.6645 0001481  69.5501 290.5651 15.08825308 13402,6917.925,95.438,540.815,538.766,0.0
